{
    "links": {
        "self": "http://www.neowsapp.com/rest/v1/neo/3799309?api_key=iIulBulltgU6a56xZRHN4H3l9WmuAYTsLGpBGhQ2"
    },
    "id": "3799309",
    "neo_reference_id": "3799309",
    "name": "(2018 CF3)",
    "designation": "2018 CF3",
    "nasa_jpl_url": "http://ssd.jpl.nasa.gov/sbdb.cgi?sstr=3799309",
    "absolute_magnitude_h": 26.6,
    "estimated_diameter": {
        "kilometers": {
            "estimated_diameter_min": 0.0127219879,
            "estimated_diameter_max": 0.0284472297
        },
        "meters": {
            "estimated_diameter_min": 12.7219878539,
            "estimated_diameter_max": 28.4472296503
        },
        "miles": {
            "estimated_diameter_min": 0.0079050743,
            "estimated_diameter_max": 0.0176762835
        },
        "feet": {
            "estimated_diameter_min": 41.7388066307,
            "estimated_diameter_max": 93.330808926
        }
    },
    "is_potentially_hazardous_asteroid": false,
    "close_approach_data": [
        {
            "close_approach_date": "1978-01-31",
            "close_approach_date_full": "1978-Jan-31 02:38",
            "epoch_date_close_approach": 255062280000,
            "relative_velocity": {
                "kilometers_per_second": "11.8257412758",
                "kilometers_per_hour": "42572.6685928872",
                "miles_per_hour": "26453.0006598415"
            },
            "miss_distance": {
                "astronomical": "0.1109891704",
                "lunar": "43.1747872856",
                "kilometers": "16603743.484907048",
                "miles": "10317087.7918033424"
            },
            "orbiting_body": "Earth"
        },
        {
            "close_approach_date": "2018-02-14",
            "close_approach_date_full": "2018-Feb-14 10:37",
            "epoch_date_close_approach": 1518604620000,
            "relative_velocity": {
                "kilometers_per_second": "8.7180941878",
                "kilometers_per_hour": "31385.1390761116",
                "miles_per_hour": "19501.5048887094"
            },
            "miss_distance": {
                "astronomical": "0.0283427773",
                "lunar": "11.0253403697",
                "kilometers": "4240019.113964351",
                "miles": "2634625.7082000038"
            },
            "orbiting_body": "Earth"
        }
    ],
    "orbital_data": {
        "orbit_id": "1",
        "orbit_determination_date": "2018-02-12 08:12:04",
        "first_observation_date": "2018-02-10",
        "last_observation_date": "2018-02-12",
        "data_arc_in_days": 2,
        "observations_used": 18,
        "orbit_uncertainty": "8",
        "minimum_orbit_intersection": ".00539982",
        "jupiter_tisserand_invariant": "3.646",
        "epoch_osculation": "2458160.5",
        "eccentricity": ".5182309570506854",
        "semi_major_axis": "2.015331763714776",
        "inclination": "1.067586125559715",
        "ascending_node_longitude": "359.6264791511847",
        "orbital_period": "1045.004719144669",
        "perihelion_distance": ".9709244550302217",
        "perihelion_argument": "172.5900394504712",
        "aphelion_distance": "3.05973907239933",
        "perihelion_time": "2458184.595480040965",
        "mean_anomaly": "351.6992022563809",
        "mean_motion": ".3444960519361654",
        "equinox": "J2000",
        "orbit_class": {
            "orbit_class_type": "APO",
            "orbit_class_description": "Near-Earth asteroid orbits which cross the Earth’s orbit similar to that of 1862 Apollo",
            "orbit_class_range": "a (semi-major axis) > 1.0 AU; q (perihelion) < 1.017 AU"
        }
    },
    "is_sentry_object": false
}